[{"OBJECT_NAME":"STARLINK-36097","OBJECT_ID":"2025-298S","EPOCH":"2026-03-09T21:42:20.478816","MEAN_MOTION":15.26086669,"ECCENTRICITY":0.00039178,"INCLINATION":70.003,"RA_OF_ASC_NODE":12.9557,"ARG_OF_PERICENTER":200.4809,"MEAN_ANOMALY":159.6208,"EPHEMERIS_TYPE":0,"CLASSIFICATION_TYPE":"U","NORAD_CAT_ID":67091,"ELEMENT_SET_NO":999,"REV_AT_EPOCH":1327,"BSTAR":0.0027728212,"MEAN_MOTION_DOT":0.00072258,"MEAN_MOTION_DDOT":0},{"OBJECT_NAME":"COSMOS 2251 DEB","OBJECT_ID":"1993-036TX","EPOCH":"2026-03-09T08:00:49.998528","MEAN_MOTION":15.19675953,"ECCENTRICITY":0.00326805,"INCLINATION":74.0422,"RA_OF_ASC_NODE":187.2566,"ARG_OF_PERICENTER":9.105,"MEAN_ANOMALY":22.3257,"EPHEMERIS_TYPE":0,"CLASSIFICATION_TYPE":"U","NORAD_CAT_ID":34478,"ELEMENT_SET_NO":999,"REV_AT_EPOCH":90283,"BSTAR":0.0038377669,"MEAN_MOTION_DOT":0.00083988,"MEAN_MOTION_DDOT":0}]
